OBJECT_NAME,OBJECT_ID,EPOCH,MEAN_MOTION,ECCENTRICITY,INCLINATION,RA_OF_ASC_NODE,ARG_OF_PERICENTER,MEAN_ANOMALY,EPHEMERIS_TYPE,CLASSIFICATION_TYPE,NORAD_CAT_ID,ELEMENT_SET_NO,REV_AT_EPOCH,BSTAR,MEAN_MOTION_DOT,MEAN_MOTION_DDOT
HYLAS 4,2018-033B,2026-07-17T04:22:38.751744,1.00270437,.00006888,0.0263,284.4646,221.6289,181.0719,0,U,43272,999,3036,0,-.244E-5,0
YAOGAN-31 01A,2018-034A,2026-07-17T05:43:30.868608,13.45463325,.0277761,63.3953,13.9530,7.6022,352.9084,0,U,43275,999,40614,-.16390033E-3,-.213E-5,0
YAOGAN-31 01B,2018-034B,2026-07-17T05:45:21.928032,13.45458896,.02777655,63.3956,13.9577,7.5562,352.9519,0,U,43276,999,40626,-.19053119E-3,-.233E-5,0
YAOGAN-31 01C,2018-034C,2026-07-17T07:36:36.838656,13.45446133,.02779632,63.3965,13.1270,7.2573,353.2350,0,U,43277,999,40629,.16761073E-4,-.78E-6,0
WEINA 1B,2018-034E,2026-07-17T07:55:44.732640,13.45372785,.02776447,63.3959,14.3279,7.9587,352.5709,0,U,43279,999,40626,-.10066632E-3,-.166E-5,0
IRNSS-1I,2018-035A,2026-07-16T17:59:38.660928,1.00272376,.00184089,28.8220,73.7347,178.6594,7.1470,0,U,43286,999,3037,0,.6E-6,0
USA 283,2018-036A,2026-07-15T13:17:38.420160,1.00269348,.0000851,0.0219,73.5495,143.9027,49.4517,0,U,43339,999,2557,0,0,0
COSMOS 2526,2018-037A,2026-07-15T00:17:30.350976,1.00268298,.00008216,0.0358,106.6288,157.1060,161.5486,0,U,43432,999,3023,0,-.354E-5,0
SENTINEL-3B,2018-039A,2026-07-17T04:55:36.576480,14.26736730,.00011929,98.6235,265.3046,119.8366,240.2933,0,U,43437,999,42840,.38460351E-4,.49E-6,0
ZHUHAI-1 OVS-02,2018-040B,2026-07-17T06:42:20.548800,15.25392460,.00052343,97.0382,213.7304,130.4642,229.7054,0,U,43440,999,45730,.14267274E-3,.3536E-4,0
ZHUHAI-1 OHS-02,2018-040C,2026-07-17T07:30:29.972160,15.26285275,.00113142,97.0359,220.7313,118.9959,241.2416,0,U,43441,999,11887,.1557072E-3,.3977E-4,0
USA 285,2018-036E,2026-07-16T23:18:55.615392,1.02113085,.0010922,7.1876,66.5901,168.7291,352.0620,0,U,43445,999,2724,0,-.129E-5,0
USA 286,2018-036F,2026-07-13T19:46:38.790912,1.02118708,.00109281,7.1767,66.5998,167.0328,353.1866,0,U,43446,999,2719,0,.26E-6,0
APSTAR-6C,2018-041A,2026-07-16T17:58:59.570112,1.00270102,.0000425,0.0547,291.7441,318.7981,87.7695,0,U,43450,999,3010,0,-.329E-5,0
GAOFEN-5 01,2018-043A,2026-07-16T22:18:50.999616,14.60623956,.00019962,98.4591,170.1443,28.3067,331.8241,0,U,43461,999,43603,.36363198E-4,.128E-5,0
BANGABANDHUSAT-1,2018-044A,2026-07-17T06:59:29.610816,1.00273475,.00017919,0.0282,95.9812,21.6833,41.4068,0,U,43463,999,3001,0,-.372E-5,0
GRACE-FO 1,2018-047A,2026-07-17T06:41:42.951840,15.38452412,.00106756,88.9921,193.8144,10.7005,349.4476,0,U,43476,999,45442,.55861617E-4,.2155E-4,0
GRACE-FO 2,2018-047B,2026-07-17T06:42:08.025120,15.38451218,.00106902,88.9921,193.8142,10.7316,349.4165,0,U,43477,999,45442,.56495992E-4,.2179E-4,0
IRIDIUM 161,2018-047C,2026-07-17T04:32:30.871680,14.43276266,.00022265,86.4460,75.9240,80.7125,279.4328,0,U,43478,999,42946,.38757401E-4,.151E-5,0
IRIDIUM 152,2018-047D,2026-07-17T04:07:46.267392,14.34218441,.00021368,86.3933,75.7924,84.1747,275.9693,0,U,43479,999,42678,.13723552E-4,.58E-6,0
IRIDIUM 147,2018-047E,2026-07-17T04:16:54.276672,14.34217463,.00022751,86.3936,75.7955,88.5088,271.6368,0,U,43480,999,42678,.17947654E-4,.7E-6,0
IRIDIUM 110,2018-047F,2026-07-16T23:24:38.062656,14.34219041,.00020782,86.3939,75.9732,77.6883,282.4545,0,U,43481,999,42674,.44308351E-4,.144E-5,0
IRIDIUM 162,2018-047G,2026-07-17T02:43:36.482880,14.43279058,.00021949,86.4458,75.8462,87.1760,272.9692,0,U,43482,999,42944,.45903646E-4,.175E-5,0
GAOFEN-6,2018-048A,2026-07-17T07:08:20.549184,14.76385282,.00121012,98.0956,261.0043,75.6207,284.6345,0,U,43484,999,43783,.45900147E-4,.267E-5,0
LUOJIA-1 01,2018-048B,2026-07-17T05:54:46.881216,14.87386791,.00096398,97.8100,275.9516,31.6479,328.5315,0,U,43485,999,43868,.16063769E-3,.1399E-4,0
SES-12,2018-049A,2026-07-17T06:52:45.257088,1.00271303,.00007652,0.0101,18.5753,246.4442,228.2661,0,U,43488,999,2972,0,-.279E-5,0
FENGYUN 2H,2018-050A,2026-07-17T03:48:38.629152,1.00266940,.00022866,3.1065,78.7191,134.5376,217.9838,0,U,43491,999,2973,0,-.138E-5,0
COSMOS 2527 [GLONASS-M],2018-053A,2026-07-14T07:14:45.547584,2.13102086,.00064133,65.5923,73.0036,229.6749,130.3442,0,U,43508,999,6285,0,-.8E-7,0
PAKTES 1A,2018-056A,2026-07-17T07:22:02.258112,14.99209104,.00197155,98.1293,356.0784,13.6136,346.5614,0,U,43529,999,43643,.76557663E-4,.87E-5,0
PRSS-1,2018-056B,2026-07-17T07:15:38.257632,14.82031262,.00012842,97.7807,265.3369,86.4930,273.6431,0,U,43530,999,43289,.54776976E-4,.384E-5,0
BEIDOU-2 IGSO-7,2018-057A,2026-07-01T21:23:21.693984,1.00246939,.01049468,55.1981,162.9292,237.8611,308.6338,0,U,43539,999,2927,0,-.33E-6,0
TELSTAR 19V,2018-059A,2026-07-17T06:07:49.564128,1.00269159,.00029772,0.0268,137.9028,354.6703,191.4431,0,U,43562,999,2944,0,-.29E-5,0
GSAT0221 (GALILEO 25),2018-060A,2026-07-16T09:27:33.192288,1.70476101,.0002686,57.1589,340.9925,284.3216,75.6348,0,U,43564,999,4965,0,-.102E-5,0
GSAT0222 (GALILEO 26),2018-060B,2026-07-13T16:20:30.695712,1.70475786,.00027814,57.1635,341.0695,235.2693,124.6907,0,U,43565,999,4966,0,-.95E-6,0
GSAT0219 (GALILEO 23),2018-060C,2026-07-15T15:52:35.098176,1.70476050,.00018362,57.1620,341.0175,298.1228,61.8439,0,U,43566,999,4967,0,-.101E-5,0
GSAT0220 (GALILEO 24),2018-060D,2026-07-17T01:20:12.612192,1.70475831,.00021564,57.1613,340.9792,287.6741,72.2898,0,U,43567,999,4968,0,-.103E-5,0
IRIDIUM 160,2018-061A,2026-07-17T06:28:58.435392,14.34217554,.00022252,86.3939,44.2136,86.7783,273.3667,0,U,43569,999,41768,.36632526E-4,.122E-5,0
IRIDIUM 166,2018-061B,2026-07-16T22:43:10.493472,14.34217765,.00022838,86.3938,44.2991,89.8455,270.3003,0,U,43570,999,41766,.8334727E-5,.43E-6,0
IRIDIUM 158,2018-061C,2026-07-16T23:37:58.438560,14.34217889,.00021028,86.3938,44.2926,88.2698,271.8739,0,U,43571,999,41763,.1350543E-4,.58E-6,0
IRIDIUM 165,2018-061D,2026-07-17T00:14:30.575040,14.34217293,.00022777,86.3939,44.3292,90.1879,269.9578,0,U,43572,999,41766,.6931594E-5,.39E-6,0
IRIDIUM 155,2018-061E,2026-07-16T23:19:42.479616,14.34217570,.00021396,86.3937,44.2133,89.6600,270.4841,0,U,43573,999,41762,.9237055E-5,.46E-6,0
IRIDIUM 154,2018-061F,2026-07-17T00:32:46.461408,14.34217536,.00023019,86.3940,44.3267,90.0435,270.1025,0,U,43574,999,41768,.6763842E-5,.39E-6,0
IRIDIUM 163,2018-061G,2026-07-17T06:47:14.529120,14.34217115,.00020066,86.3934,44.1321,85.3111,274.8314,0,U,43575,999,41769,-.2228188E-5,.14E-6,0
IRIDIUM 156,2018-061H,2026-07-17T01:09:18.423360,14.34218044,.00021268,86.3936,44.2377,93.4368,266.7071,0,U,43576,999,41765,.16627487E-4,.66E-6,0
IRIDIUM 164,2018-061J,2026-07-17T00:41:54.505248,14.34218566,.00023392,86.3938,44.2866,89.1929,270.9535,0,U,43577,999,41769,.3352673E-4,.114E-5,0
IRIDIUM 159,2018-061K,2026-07-17T06:38:06.456768,14.34217636,.00021341,86.3935,44.1194,85.8386,274.3053,0,U,43578,999,41769,.9113229E-5,.45E-6,0
BEIDOU-3 M5,2018-062A,2026-07-16T02:27:45.852192,1.86228746,.0005659,54.0864,181.3210,293.1569,66.7535,0,U,43581,999,5417,0,.39E-6,0
BEIDOU-3 M6,2018-062B,2026-07-15T23:11:21.391584,1.86227848,.00053648,54.0864,181.3149,10.9821,348.9999,0,U,43582,999,5417,0,.39E-6,0
GAOFEN-11 01,2018-063A,2026-07-17T08:09:52.769376,15.56107398,.0003437,97.1270,265.1493,189.1766,170.9427,0,U,43585,999,44503,.11689698E-3,.8063E-4,0
TELKOM 4 (MERAH PUTIH),2018-064A,2026-07-17T01:48:35.877600,1.00270573,.00011773,0.0157,63.8964,51.7199,314.4313,0,U,43587,999,2917,0,0,0
BEIDOU-3 M12,2018-067A,2026-07-14T19:56:16.514880,1.86227572,.00079415,54.1815,180.1029,30.1280,329.8903,0,U,43602,999,5363,0,.41E-6,0
BEIDOU-3 M11,2018-067B,2026-07-14T23:10:52.622112,1.86227031,.00046403,54.1789,180.0620,13.0811,346.9028,0,U,43603,999,5366,0,.41E-6,0
HAIYANG-1C,2018-068A,2026-07-17T07:32:28.062816,14.34186925,.00110712,98.5183,270.1850,12.3060,347.8394,0,U,43609,999,41140,.26259958E-4,.3E-6,0
TELSTAR 18V,2018-069A,2026-07-17T07:05:06.573408,1.00270291,.00017889,0.0267,287.5311,191.2058,60.6556,0,U,43611,999,2894,0,-.304E-5,0
ICESAT-2,2018-070A,2026-07-17T06:36:56.353536,15.28198805,.00054406,92.0093,299.1103,54.2668,305.9087,0,U,43613,999,43705,.18205992E-3,.5004E-4,0
SSTL S1-4,2018-071A,2026-07-17T06:00:30.462912,14.96205950,.00024207,97.4980,68.6070,95.4688,264.6810,0,U,43618,999,42743,.64234025E-4,.67E-5,0
NOVASAR 1,2018-071B,2026-07-17T06:45:54.737856,14.96270427,.00018106,97.5034,69.3626,66.0385,294.1026,0,U,43619,999,42743,-.23656142E-4,-.321E-5,0
BEIDOU-3 M13,2018-072A,2026-07-13T20:19:15.504672,1.86231187,.00062359,56.6475,61.7808,333.7731,26.2691,0,U,43622,999,5315,0,-.39E-6,0
BEIDOU-3 M14,2018-072B,2026-07-15T20:38:20.395392,1.86231129,.00055578,56.6514,61.7086,10.9419,349.1444,0,U,43623,999,5318,0,-.45E-6,0
AZERSPACE 2 (IS-38),2018-074A,2026-07-17T04:55:56.949600,1.00270402,.00014157,0.0222,57.3147,59.2089,297.6130,0,U,43632,999,2874,0,0,0
HORIZONS-3E,2018-074B,2026-07-17T05:31:23.550816,1.00272627,.00009334,0.0273,229.1429,57.7490,259.9933,0,U,43633,999,2864,0,-.41E-6,0
CENTISPACE-1 S1,2018-075A,2026-07-17T06:19:41.227968,14.60022151,.00093038,97.8722,220.5257,34.9772,325.2038,0,U,43636,999,41494,.49403062E-4,.194E-5,0
SAOCOM 1A,2018-076A,2026-07-17T07:31:06.564288,14.82146270,.00014497,97.8882,24.6236,85.4857,274.6522,0,U,43641,999,42056,-.56994204E-4,-.506E-5,0
YAOGAN-32 A,2018-077A,2026-07-17T06:44:40.413120,14.63210359,.0001897,98.1460,226.4625,83.4449,276.6969,0,U,43642,999,41424,.9892522E-4,.462E-5,0
YAOGAN-32 B,2018-077B,2026-07-17T06:44:30.090912,14.63208530,.00070633,98.1464,226.4190,117.7366,242.4554,0,U,43643,999,41423,.10274052E-3,.482E-5,0
BEIDOU-3 M16,2018-078A,2026-07-16T00:21:25.324416,1.86232227,.00065971,54.0618,298.9748,39.6301,320.4557,0,U,43647,999,5269,0,-.71E-6,0
BEIDOU-3 M15,2018-078B,2026-07-16T16:20:46.190688,1.86232352,.00034867,54.0570,298.9515,57.6881,302.3845,0,U,43648,999,5272,0,-.75E-6,0
AEHF-4 (USA 288),2018-079A,2026-07-17T06:06:27.196416,1.00274806,.00592004,1.4372,5.7137,354.5731,318.8676,0,U,43651,999,2859,0,-.285E-5,0
